GLOBALSTAR M063         
1 26081U 00008A   25300.53501764 -.00000077  00000+0  85346-4 0  9990
2 26081  51.9914 123.0119 0004263 194.4726 198.6969 11.86176797173285
GLOBALSTAR M062         
1 26082U 00008B   25300.51476527 -.00000095  00000+0  23079-4 0  9992
2 26082  51.9852  66.6406 0007372  41.3755  36.3912 12.43475131513084
GLOBALSTAR M060         
1 26083U 00008C   25300.53952631 -.00000075  00000+0  15392-3 0  9996
2 26083  52.0040  45.3009 0003442  47.0845 325.5637 12.17668813168496
GLOBALSTAR M064         
1 26084U 00008D   25300.51596712 -.00000090  00000+0 -95271-4 0  9992
2 26084  52.0026 220.3322 0001538 343.8559  16.2224 11.88537698182830
GLOBALSTAR M065         
1 31571U 07020A   25300.43490435 -.00000029  00000+0  41977-3 0  9990
2 31571  51.9882 183.7451 0009105 239.8539 291.4003 12.62011788850104
GLOBALSTAR M069         
1 31573U 07020C   25300.46196464 -.00000105  00000+0 -11899-3 0  9996
2 31573  52.0024 190.8270 0002589  41.9174 129.5759 12.23462301850310
GLOBALSTAR M072         
1 31574U 07020D   25300.55757904 -.00000065  00000+0  26209-3 0  9994
2 31574  51.9963 359.5681 0001135 202.4733 300.3943 11.91652529847241
GLOBALSTAR M071         
1 31576U 07020F   25300.49469329 -.00000120  00000+0 -28141-3 0  9990
2 31576  52.0057 220.0825 0001531  35.7795 136.4559 12.18260473511068
